start=new Date('2022-06-16T00:00:00.000Z').valueOf();
sats=[{"INCLINATION":"52.9932","MEAN_ELEMENT_THEORY":"SGP4","DECAY_DATE":null,"LAUNCH_DATE":"2019-11-11","BSTAR":"0.00117110000000","REF_FRAME":"TEME","ARG_OF_PERICENTER":"36.7337","OBJECT_NAME":"STARLINK-1037","CENTER_NAME":"EARTH","RA_OF_ASC_NODE":"189.2777","CLASSIFICATION_TYPE":"U","PERIAPSIS":"516.653","PERIOD":"94.998","EPOCH":"2022-06-15T18:20:22.075296","REV_AT_EPOCH":"14322","FILE":"3496999","OBJECT_ID":"2019-074AF","OBJECT_TYPE":"PAYLOAD","ECCENTRICITY":"0.00026910","RCS_SIZE":"LARGE","TLE_LINE1":"1 44742U 19074AF  22166.76414439  .00022406  00000-0  11711-2 0  9994","MEAN_MOTION":"15.15814655","APOAPSIS":"520.364","MEAN_MOTION_DOT":"0.00022406","MEAN_MOTION_DDOT":"0.0000000000000","MEAN_ANOMALY":"323.3839","COUNTRY_CODE":"US","SEMIMAJOR_AXIS":"6896.643","EPHEMERIS_TYPE":"0","TIME_SYSTEM":"UTC","TLE_LINE2":"2 44742  52.9932 189.2777 0002691  36.7337 323.3839 15.15814655143225","SITE":"AFETR","NORAD_CAT_ID":"44742","ELEMENT_SET_NO":"999","GP_ID":"206235600"},{"RCS_SIZE":"LARGE","TLE_LINE1":"1 44743U 19074AG  22166.86574835 -.00000193  00000-0  59708-5 0  9994","MEAN_MOTION":"15.06399460","APOAPSIS":"548.217","MEAN_MOTION_DOT":"-0.00000193","MEAN_MOTION_DDOT":"0.0000000000000","COUNTRY_CODE":"US","MEAN_ANOMALY":"294.1194","SEMIMAJOR_AXIS":"6925.350","EPHEMERIS_TYPE":"0","TIME_SYSTEM":"UTC","TLE_LINE2":"2 44743  53.0556 224.5784 0001446  65.9946 294.1194 15.06399460142879","SITE":"AFETR","NORAD_CAT_ID":"44743","ELEMENT_SET_NO":"999","GP_ID":"206235851","INCLINATION":"53.0556","MEAN_ELEMENT_THEORY":"SGP4","DECAY_DATE":null,"LAUNCH_DATE":"2019-11-11","BSTAR":"0.00000597080000","REF_FRAME":"TEME","ARG_OF_PERICENTER":"65.9946","OBJECT_NAME":"STARLINK-1038","CENTER_NAME":"EARTH","RA_OF_ASC_NODE":"224.5784","CLASSIFICATION_TYPE":"U","PERIAPSIS":"546.214","PERIOD":"95.592","REV_AT_EPOCH":"14287","EPOCH":"2022-06-15T20:46:40.657440","OBJECT_ID":"2019-074AG","FILE":"3496999","ECCENTRICITY":"0.00014460","OBJECT_TYPE":"PAYLOAD"},{"TLE_LINE2":"2 44744  53.0549 224.5248 0001400  73.1410 286.9733 15.06397875142780","TIME_SYSTEM":"UTC","EPHEMERIS_TYPE":"0","SEMIMAJOR_AXIS":"6925.355","GP_ID":"206234599","ELEMENT_SET_NO":"999","SITE":"AFETR","NORAD_CAT_ID":"44744","COUNTRY_CODE":"US","MEAN_ANOMALY":"286.9733","MEAN_MOTION_DDOT":"0.0000000000000","MEAN_MOTION_DOT":"0.00001020","APOAPSIS":"548.190","MEAN_MOTION":"15.06397875","TLE_LINE1":"1 44744U 19074AH  22166.87681910  .00001020  00000-0  87397-4 0  9992","RCS_SIZE":"LARGE","PERIAPSIS":"546.251","OBJECT_TYPE":"PAYLOAD","ECCENTRICITY":"0.00014000","FILE":"3496999","OBJECT_ID":"2019-074AH","REV_AT_EPOCH":"14278","EPOCH":"2022-06-15T21:02:37.170240","PERIOD":"95.592","BSTAR":"0.00008739700000","LAUNCH_DATE":"2019-11-11","DECAY_DATE":null,"MEAN_ELEMENT_THEORY":"SGP4","INCLINATION":"53.0549","CLASSIFICATION_TYPE":"U","RA_OF_ASC_NODE":"224.5248","CENTER_NAME":"EARTH","OBJECT_NAME":"STARLINK-1039","ARG_OF_PERICENTER":"73.1410","REF_FRAME":"TEME"},{"SEMIMAJOR_AXIS":"6925.373","EPHEMERIS_TYPE":"0","TLE_LINE2":"2 44746  53.0547 224.5997 0001805  53.6800 306.4355 15.06391891142786","TIME_SYSTEM":"UTC","NORAD_CAT_ID":"44746","SITE":"AFETR","ELEMENT_SET_NO":"999","GP_ID":"206234849","RCS_SIZE":"LARGE","TLE_LINE1":"1 44746U 19074AK  22166.86207192 -.00001204  00000-0 -61968-4 0  9991","MEAN_MOTION":"15.06391891","APOAPSIS":"548.488","MEAN_MOTION_DOT":"-0.00001204","MEAN_MOTION_DDOT":"0.0000000000000","MEAN_ANOMALY":"306.4355","COUNTRY_CODE":"US","PERIAPSIS":"545.988","PERIOD":"95.593","REV_AT_EPOCH":"14278","EPOCH":"2022-06-15T20:41:23.013888","OBJECT_ID":"2019-074AK","FILE":"3496999","ECCENTRICITY":"0.00018050","OBJECT_TYPE":"PAYLOAD","INCLINATION":"53.0547","MEAN_ELEMENT_THEORY":"SGP4","DECAY_DATE":null,"BSTAR":"-0.00006196800000","LAUNCH_DATE":"2019-11-11","REF_FRAME":"TEME","ARG_OF_PERICENTER":"53.6800","OBJECT_NAME":"STARLINK-1041","CENTER_NAME":"EARTH","RA_OF_ASC_NODE":"224.5997","CLASSIFICATION_TYPE":"U"},{"PERIOD":"95.595","ECCENTRICITY":"0.00015930","OBJECT_TYPE":"PAYLOAD","REV_AT_EPOCH":"14272","EPOCH":"2022-06-15T10:15:04.718016","FILE":"3496794","OBJECT_ID":"2019-074AL","PERIAPSIS":"546.237","OBJECT_NAME":"STARLINK-1042","CENTER_NAME":"EARTH","REF_FRAME":"TEME","ARG_OF_PERICENTER":"76.0736","CLASSIFICATION_TYPE":"U","RA_OF_ASC_NODE":"226.5536","MEAN_ELEMENT_THEORY":"SGP4","INCLINATION":"53.0562","BSTAR":"0.00031399000000","LAUNCH_DATE":"2019-11-11","DECAY_DATE":null,"SITE":"AFETR","NORAD_CAT_ID":"44747","GP_ID":"206205906","ELEMENT_SET_NO":"999","EPHEMERIS_TYPE":"0","SEMIMAJOR_AXIS":"6925.476","TLE_LINE2":"2 44747  53.0562 226.5536 0001593  76.0736 284.0430 15.06358548142727","TIME_SYSTEM":"UTC","TLE_LINE1":"1 44747U 19074AL  22166.42713794  .00004393  00000-0  31399-3 0  9998","RCS_SIZE":"LARGE","MEAN_MOTION_DDOT":"0.0000000000000","COUNTRY_CODE":"US","MEAN_ANOMALY":"284.0430","MEAN_MOTION":"15.06358548","MEAN_MOTION_DOT":"0.00004393","APOAPSIS":"548.444"},{"APOAPSIS":"548.239","MEAN_MOTION_DOT":"-0.00002020","MEAN_MOTION":"15.06384321","MEAN_ANOMALY":"292.0732","COUNTRY_CODE":"US","MEAN_MOTION_DDOT":"0.0000000000000","RCS_SIZE":"LARGE","TLE_LINE1":"1 44748U 19074AM  22166.85470593 -.00002020  00000-0 -11679-3 0  9999","TLE_LINE2":"2 44748  53.0544 224.6195 0001411  68.0406 292.0732 15.06384321142780","TIME_SYSTEM":"UTC","SEMIMAJOR_AXIS":"6925.397","EPHEMERIS_TYPE":"0","ELEMENT_SET_NO":"999","GP_ID":"206235352","NORAD_CAT_ID":"44748","SITE":"AFETR","DECAY_DATE":null,"LAUNCH_DATE":"2019-11-11","BSTAR":"-0.00011679000000","INCLINATION":"53.0544","MEAN_ELEMENT_THEORY":"SGP4","RA_OF_ASC_NODE":"224.6195","CLASSIFICATION_TYPE":"U","ARG_OF_PERICENTER":"68.0406","REF_FRAME":"TEME","CENTER_NAME":"EARTH","OBJECT_NAME":"STARLINK-1043","PERIAPSIS":"546.284","OBJECT_ID":"2019-074AM","FILE":"3496999","EPOCH":"2022-06-15T20:30:46.592352","REV_AT_EPOCH":"14278","OBJECT_TYPE":"PAYLOAD","ECCENTRICITY":"0.00014110","PERIOD":"95.593"},{"RA_OF_ASC_NODE":"224.5632","CLASSIFICATION_TYPE":"U","ARG_OF_PERICENTER":"61.7675","REF_FRAME":"TEME","CENTER_NAME":"EARTH","OBJECT_NAME":"STARLINK-1046","DECAY_DATE":null,"BSTAR":"-0.00006791400000","LAUNCH_DATE":"2019-11-11","INCLINATION":"53.0547","MEAN_ELEMENT_THEORY":"SGP4","FILE":"3496999","OBJECT_ID":"2019-074AQ","EPOCH":"2022-06-15T20:52:00.504192","REV_AT_EPOCH":"14278","ECCENTRICITY":"0.00017680","OBJECT_TYPE":"PAYLOAD","PERIOD":"95.593","PERIAPSIS":"546.034","APOAPSIS":"548.483","MEAN_MOTION_DOT":"-0.00001293","MEAN_MOTION":"15.06385269","COUNTRY_CODE":"US","MEAN_ANOMALY":"298.3492","MEAN_MOTION_DDOT":"0.0000000000000","RCS_SIZE":"LARGE","TLE_LINE1":"1 44751U 19074AQ  22166.86945028 -.00001293  00000-0 -67914-4 0  9999","ELEMENT_SET_NO":"999","GP_ID":"206234100","NORAD_CAT_ID":"44751","SITE":"AFETR","TIME_SYSTEM":"UTC","TLE_LINE2":"2 44751  53.0547 224.5632 0001768  61.7675 298.3492 15.06385269142789","SEMIMAJOR_AXIS":"6925.394","EPHEMERIS_TYPE":"0"},{"OBJECT_TYPE":"PAYLOAD","ECCENTRICITY":"0.00016820","FILE":"3496794","OBJECT_ID":"2019-074AR","REV_AT_EPOCH":"14300","EPOCH":"2022-06-15T11:47:57.251904","PERIOD":"95.593","PERIAPSIS":"546.080","CLASSIFICATION_TYPE":"U","RA_OF_ASC_NODE":"206.2601","CENTER_NAME":"EARTH","OBJECT_NAME":"STARLINK-1047","ARG_OF_PERICENTER":"57.2167","REF_FRAME":"TEME","LAUNCH_DATE":"2019-11-11","BSTAR":"-0.00009367900000","DECAY_DATE":null,"MEAN_ELEMENT_THEORY":"SGP4","INCLINATION":"53.0541","GP_ID":"206204661","ELEMENT_SET_NO":"999","NORAD_CAT_ID":"44752","SITE":"AFETR","TLE_LINE2":"2 44752  53.0541 206.2601 0001682  57.2167 302.8984 15.06389776143008","TIME_SYSTEM":"UTC","EPHEMERIS_TYPE":"0","SEMIMAJOR_AXIS":"6925.380","MEAN_ANOMALY":"302.8984","COUNTRY_CODE":"US","MEAN_MOTION_DDOT":"0.0000000000000","MEAN_MOTION_DOT":"-0.00001676","APOAPSIS":"548.410","MEAN_MOTION":"15.06389776","TLE_LINE1":"1 44752U 19074AR  22166.49163486 -.00001676  00000-0 -93679-4 0  9991","RCS_SIZE":"LARGE"},{"PERIOD":"95.593","ECCENTRICITY":"0.00014880","OBJECT_TYPE":"PAYLOAD","OBJECT_ID":"2019-074AS","FILE":"3496999","EPOCH":"2022-06-15T18:18:04.642272","REV_AT_EPOCH":"14332","PERIAPSIS":"546.211","CENTER_NAME":"EARTH","OBJECT_NAME":"STARLINK-1048","ARG_OF_PERICENTER":"64.1407","REF_FRAME":"TEME","CLASSIFICATION_TYPE":"U","RA_OF_ASC_NODE":"185.0388","MEAN_ELEMENT_THEORY":"SGP4","INCLINATION":"53.0555","BSTAR":"0.00001444800000","LAUNCH_DATE":"2019-11-11","DECAY_DATE":null,"NORAD_CAT_ID":"44753","SITE":"AFETR","GP_ID":"206235601","ELEMENT_SET_NO":"999","EPHEMERIS_TYPE":"0","SEMIMAJOR_AXIS":"6925.376","TIME_SYSTEM":"UTC","TLE_LINE2":"2 44753  53.0555 185.0388 0001488  64.1407 295.9735 15.06391020143324","TLE_LINE1":"1 44753U 19074AS  22166.76255373 -.00000066  00000-0  14448-4 0  9997","RCS_SIZE":"LARGE","COUNTRY_CODE":"US","MEAN_ANOMALY":"295.9735","MEAN_MOTION_DDOT":"0.0000000000000","MEAN_MOTION_DOT":"-0.00000066","APOAPSIS":"548.272","MEAN_MOTION":"15.06391020"},{"INCLINATION":"53.0534","MEAN_ELEMENT_THEORY":"SGP4","DECAY_DATE":null,"LAUNCH_DATE":"2019-11-11","BSTAR":"0.00000763610000","REF_FRAME":"TEME","ARG_OF_PERICENTER":"59.0887","OBJECT_NAME":"STARLINK-1049","CENTER_NAME":"EARTH","RA_OF_ASC_NODE":"185.0305","CLASSIFICATION_TYPE":"U","PERIAPSIS":"546.161","PERIOD":"95.592","REV_AT_EPOCH":"14332","EPOCH":"2022-06-15T18:23:22.545888","OBJECT_ID":"2019-074AT","FILE":"3496999","OBJECT_TYPE":"PAYLOAD","ECCENTRICITY":"0.00015350","RCS_SIZE":"LARGE","TLE_LINE1":"1 44754U 19074AT  22166.76623317 -.00000168  00000-0  76361-5 0  9991","MEAN_MOTION":"15.06396635","MEAN_MOTION_DOT":"-0.00000168","APOAPSIS":"548.287","MEAN_MOTION_DDOT":"0.0000000000000","MEAN_ANOMALY":"301.0252","COUNTRY_CODE":"US","SEMIMAJOR_AXIS":"6925.359","EPHEMERIS_TYPE":"0","TLE_LINE2":"2 44754  53.0534 185.0305 0001535  59.0887 301.0252 15.06396635143329","TIME_SYSTEM":"UTC","NORAD_CAT_ID":"44754","SITE":"AFETR","ELEMENT_SET_NO":"999","GP_ID":"206235852"}];
